GRUS-1E                 
1 47935U 21022D   26068.51626799  .00002189  00000+0  18239-3 0  9997
2 47935  97.5572 315.9955 0012887 315.7380  44.2812 14.99578755271017
STARLINK-3043           
1 49179U 21082BB  26068.51323773  .00002676  00000+0  23207-3 0  9993
2 49179  69.9990 254.8850 0001755 265.2831  94.8127 14.98311271246933
